[{"OBJECT_NAME":"STARLINK-4475","OBJECT_ID":"2022-101U","EPOCH":"2026-03-09T23:08:50.352288","MEAN_MOTION":15.08839652,"ECCENTRICITY":0.00012489,"INCLINATION":53.2168,"RA_OF_ASC_NODE":62.8856,"ARG_OF_PERICENTER":86.2164,"MEAN_ANOMALY":273.8971,"EPHEMERIS_TYPE":0,"CLASSIFICATION_TYPE":"U","NORAD_CAT_ID":53545,"ELEMENT_SET_NO":999,"REV_AT_EPOCH":19703,"BSTAR":4.1716288e-5,"MEAN_MOTION_DOT":3.76e-6,"MEAN_MOTION_DDOT":0},{"OBJECT_NAME":"CZ-6A DEB","OBJECT_ID":"2024-140FT","EPOCH":"2026-03-09T20:21:11.789568","MEAN_MOTION":14.71915772,"ECCENTRICITY":0.01746518,"INCLINATION":89.0601,"RA_OF_ASC_NODE":285.0345,"ARG_OF_PERICENTER":174.2343,"MEAN_ANOMALY":186.0946,"EPHEMERIS_TYPE":0,"CLASSIFICATION_TYPE":"U","NORAD_CAT_ID":60792,"ELEMENT_SET_NO":999,"REV_AT_EPOCH":8444,"BSTAR":0.00029453778,"MEAN_MOTION_DOT":2.37e-5,"MEAN_MOTION_DDOT":0}]
